{"type": "FeatureCollection", "features": [ {"type": "Feature", "properties": {"norad_id": 30846, "name": "FENGYUN 1C DEB", "group": "fengyun-1c-debris", "lat": 79.83394029229001, "lon": 59.335326325037805, "alt_km": 779.9486957245745, "timestamp": "2025-12-24T16:52:41.811156+00:00", "meta": {"OBJECT_NAME": "FENGYUN 1C DEB", "OBJECT_ID": "1999-025AWG", "EPOCH": "2025-12-23T06:18:07.356096", "MEAN_MOTION": 14.41591186, "ECCENTRICITY": 0.00539356, "INCLINATION": 99.3211, "RA_OF_ASC_NODE": 171.4269, "ARG_OF_PERICENTER": 305.526, "MEAN_ANOMALY": 235.7251, "EPHEMERIS_TYPE": 0, "CLASSIFICATION_TYPE": "U", "NORAD_CAT_ID": 30846, "ELEMENT_SET_NO": 999, "REV_AT_EPOCH": 98081, "BSTAR": 0.0007453984, "MEAN_MOTION_DOT": 2.415e-05, "MEAN_MOTION_DDOT": 0}, "tle": {"line1": "1 30846U 99025AWG 25357.26258514  .00002415  00000+0  74540-3 0  9995", "line2": "2 30846  99.3211 171.4269 0053935 305.5260 235.7251 14.41591186980815"}}, "geometry": {"type": "Point", "coordinates": [59.335326325037805, 79.83394029229001]}}, {"type": "Feature", "properties": {"norad_id": 30847, "name": "FENGYUN 1C DEB", "group": "fengyun-1c-debris", "lat": -10.196791346459621, "lon": -22.94000691525572, "alt_km": 850.103820806713, "timestamp": "2025-12-24T16:52:41.811169+00:00", "meta": {"OBJECT_NAME": "FENGYUN 1C DEB", "OBJECT_ID": "1999-025AWH", "EPOCH": "2025-12-23T09:36:53.212032", "MEAN_MOTION": 14.17095157, "ECCENTRICITY": 0.00657931, "INCLINATION": 98.732, "RA_OF_ASC_NODE": 157.365, "ARG_OF_PERICENTER": 297.4564, "MEAN_ANOMALY": 91.6832, "EPHEMERIS_TYPE": 0, "CLASSIFICATION_TYPE": "U", "NORAD_CAT_ID": 30847, "ELEMENT_SET_NO": 999, "REV_AT_EPOCH": 96206, "BSTAR": 0.0018744135, "MEAN_MOTION_DOT": 3.812e-05, "MEAN_MOTION_DDOT": 0}, "tle": {"line1": "1 30847U 99025AWH 25357.40061588  .00003812  00000+0  18744-2 0  9990", "line2": "2 30847  98.7320 157.3650 0065793 297.4564  91.6832 14.17095157962069"}}, "geometry": {"type": "Point", "coordinates": [-22.94000691525572, -10.196791346459621]}}, {"type": "Feature", "properties": {"norad_id": 30848, "name": "FENGYUN 1C DEB", "group": "fengyun-1c-debris", "lat": -36.71846229736781, "lon": -159.04902972976038, "alt_km": 753.9012196304702, "timestamp": "2025-12-24T16:52:41.811179+00:00", "meta": {"OBJECT_NAME": "FENGYUN 1C DEB", "OBJECT_ID": "1999-025AWJ", "EPOCH": "2025-12-23T00:52:33.446208", "MEAN_MOTION": 14.34545342, "ECCENTRICITY": 0.00435447, "INCLINATION": 99.059, "RA_OF_ASC_NODE": 192.3701, "ARG_OF_PERICENTER": 305.8532, "MEAN_ANOMALY": 53.8611, "EPHEMERIS_TYPE": 0, "CLASSIFICATION_TYPE": "U", "NORAD_CAT_ID": 30848, "ELEMENT_SET_NO": 999, "REV_AT_EPOCH": 97454, "BSTAR": 0.0011617918, "MEAN_MOTION_DOT": 3.267e-05, "MEAN_MOTION_DDOT": 0}, "tle": {"line1": "1 30848U 99025AWJ 25357.03649822  .00003267  00000+0  11618-2 0  9990", "line2": "2 30848  99.0590 192.3701 0043544 305.8532  53.8611 14.34545342974544"}}, "geometry": {"type": "Point", "coordinates": [-159.04902972976038, -36.71846229736781]}}, {"type": "Feature", "properties": {"norad_id": 30849, "name": "FENGYUN 1C DEB", "group": "fengyun-1c-debris", "lat": 61.59096106779483, "lon": 41.8151967336747, "alt_km": 823.9168955047398, "timestamp": "2025-12-24T16:52:41.811190+00:00", "meta": {"OBJECT_NAME": "FENGYUN 1C DEB", "OBJECT_ID": "1999-025AWK", "EPOCH": "2025-12-24T03:10:55.933248", "MEAN_MOTION": 14.18915967, "ECCENTRICITY": 0.00479615, "INCLINATION": 99.0468, "RA_OF_ASC_NODE": 58.3637, "ARG_OF_PERICENTER": 332.7889, "MEAN_ANOMALY": 56.2512, "EPHEMERIS_TYPE": 0, "CLASSIFICATION_TYPE": "U", "NORAD_CAT_ID": 30849, "ELEMENT_SET_NO": 999, "REV_AT_EPOCH": 96534, "BSTAR": 0.0013435707, "MEAN_MOTION_DOT": 2.786e-05, "MEAN_MOTION_DDOT": 0}, "tle": {"line1": "1 30849U 99025AWK 25358.13259182  .00002786  00000+0  13436-2 0  9994", "line2": "2 30849  99.0468  58.3637 0047961 332.7889  56.2512 14.18915967965340"}}, "geometry": {"type": "Point", "coordinates": [41.8151967336747, 61.59096106779483]}}, {"type": "Feature", "properties": {"norad_id": 30850, "name": "FENGYUN 1C DEB", "group": "fengyun-1c-debris", "lat": -62.380826062132286, "lon": 27.137510925799674, "alt_km": 831.3218290885297, "timestamp": "2025-12-24T16:52:41.811201+00:00", "meta": {"OBJECT_NAME": "FENGYUN 1C DEB", "OBJECT_ID": "1999-025AWL", "EPOCH": "2025-12-24T02:53:17.697408", "MEAN_MOTION": 14.16366981, "ECCENTRICITY": 0.01091836, "INCLINATION": 98.3939, "RA_OF_ASC_NODE": 222.9794, "ARG_OF_PERICENTER": 164.4585, "MEAN_ANOMALY": 347.271, "EPHEMERIS_TYPE": 0, "CLASSIFICATION_TYPE": "U", "NORAD_CAT_ID": 30850, "ELEMENT_SET_NO": 999, "REV_AT_EPOCH": 95959, "BSTAR": 0.0017894018, "MEAN_MOTION_DOT": 3.727e-05, "MEAN_MOTION_DDOT": 0}, "tle": {"line1": "1 30850U 99025AWL 25358.12034372  .00003727  00000+0  17894-2 0  9995", "line2": "2 30850  98.3939 222.9794 0109183 164.4585 347.2710 14.16366981959595"}}, "geometry": {"type": "Point", "coordinates": [27.137510925799674, -62.380826062132286]}}, {"type": "Feature", "properties": {"norad_id": 30852, "name": "FENGYUN 1C DEB", "group": "fengyun-1c-debris", "lat": -31.368905831840493, "lon": 21.486462379601, "alt_km": 889.2306399415284, "timestamp": "2025-12-24T16:52:41.811212+00:00", "meta": {"OBJECT_NAME": "FENGYUN 1C DEB", "OBJECT_ID": "1999-025AWN", "EPOCH": "2025-12-24T06:48:49.227840", "MEAN_MOTION": 14.10303208, "ECCENTRICITY": 0.00562929, "INCLINATION": 98.733, "RA_OF_ASC_NODE": 15.7022, "ARG_OF_PERICENTER": 201.5389, "MEAN_ANOMALY": 158.3414, "EPHEMERIS_TYPE": 0, "CLASSIFICATION_TYPE": "U", "NORAD_CAT_ID": 30852, "ELEMENT_SET_NO": 999, "REV_AT_EPOCH": 96545, "BSTAR": 0.00043533504, "MEAN_MOTION_DOT": 7.41e-06, "MEAN_MOTION_DDOT": 0}, "tle": {"line1": "1 30852U 99025AWN 25358.28390310  .00000741  00000+0  43534-3 0  9995", "line2": "2 30852  98.7330  15.7022 0056292 201.5389 158.3414 14.10303208965456"}}, "geometry": {"type": "Point", "coordinates": [21.486462379601, -31.368905831840493]}}, {"type": "Feature", "properties": {"norad_id": 30856, "name": "FENGYUN 1C DEB", "group": "fengyun-1c-debris", "lat": -50.737945189329956, "lon": -7.049761101522638, "alt_km": 689.2420850392355, "timestamp": "2025-12-24T16:52:41.811223+00:00", "meta": {"OBJECT_NAME": "FENGYUN 1C DEB", "OBJECT_ID": "1999-025AWS", "EPOCH": "2025-12-23T11:50:56.692608", "MEAN_MOTION": 14.46528962, "ECCENTRICITY": 0.00874412, "INCLINATION": 98.2028, "RA_OF_ASC_NODE": 181.9435, "ARG_OF_PERICENTER": 206.0666, "MEAN_ANOMALY": 209.6935, "EPHEMERIS_TYPE": 0, "CLASSIFICATION_TYPE": "U", "NORAD_CAT_ID": 30856, "ELEMENT_SET_NO": 999, "REV_AT_EPOCH": 96681, "BSTAR": 0.0050215425, "MEAN_MOTION_DOT": 0.00018969, "MEAN_MOTION_DDOT": 0}, "tle": {"line1": "1 30856U 99025AWS 25357.49371172  .00018969  00000+0  50215-2 0  9990", "line2": "2 30856  98.2028 181.9435 0087441 206.0666 209.6935 14.46528962966815"}}, "geometry": {"type": "Point", "coordinates": [-7.049761101522638, -50.737945189329956]}}, {"type": "Feature", "properties": {"norad_id": 30857, "name": "FENGYUN 1C DEB", "group": "fengyun-1c-debris", "lat": -65.09851440409196, "lon": 9.16653671927327, "alt_km": 702.6871247324734, "timestamp": "2025-12-24T16:52:41.811234+00:00", "meta": {"OBJECT_NAME": "FENGYUN 1C DEB", "OBJECT_ID": "1999-025AWT", "EPOCH": "2025-12-23T04:47:46.082688", "MEAN_MOTION": 14.51842039, "ECCENTRICITY": 0.00407608, "INCLINATION": 98.9722, "RA_OF_ASC_NODE": 347.6644, "ARG_OF_PERICENTER": 263.7101, "MEAN_ANOMALY": 95.9448, "EPHEMERIS_TYPE": 0, "CLASSIFICATION_TYPE": "U", "NORAD_CAT_ID": 30857, "ELEMENT_SET_NO": 999, "REV_AT_EPOCH": 96875, "BSTAR": 0.0044417338, "MEAN_MOTION_DOT": 0.00018071, "MEAN_MOTION_DDOT": 0}, "tle": {"line1": "1 30857U 99025AWT 25357.19983892  .00018071  00000+0  44417-2 0  9997", "line2": "2 30857  98.9722 347.6644 0040760 263.7101  95.9448 14.51842039968754"}}, "geometry": {"type": "Point", "coordinates": [9.16653671927327, -65.09851440409196]}}, {"type": "Feature", "properties": {"norad_id": 30858, "name": "FENGYUN 1C DEB", "group": "fengyun-1c-debris", "lat": -79.98754646919413, "lon": 117.52472291037323, "alt_km": 861.0463384019758, "timestamp": "2025-12-24T16:52:41.811245+00:00", "meta": {"OBJECT_NAME": "FENGYUN 1C DEB", "OBJECT_ID": "1999-025AWU", "EPOCH": "2025-12-23T19:34:35.946048", "MEAN_MOTION": 14.17797328, "ECCENTRICITY": 0.00305517, "INCLINATION": 98.7977, "RA_OF_ASC_NODE": 55.3428, "ARG_OF_PERICENTER": 79.0625, "MEAN_ANOMALY": 348.1771, "EPHEMERIS_TYPE": 0, "CLASSIFICATION_TYPE": "U", "NORAD_CAT_ID": 30858, "ELEMENT_SET_NO": 999, "REV_AT_EPOCH": 97137, "BSTAR": 0.0003363797, "MEAN_MOTION_DOT": 6.45e-06, "MEAN_MOTION_DDOT": 0}, "tle": {"line1": "1 30858U 99025AWU 25357.81569382  .00000645  00000+0  33638-3 0  9993", "line2": "2 30858  98.7977  55.3428 0030551  79.0625 348.1771 14.17797328971370"}}, "geometry": {"type": "Point", "coordinates": [117.52472291037323, -79.98754646919413]}}, {"type": "Feature", "properties": {"norad_id": 30859, "name": "FENGYUN 1C DEB", "group": "fengyun-1c-debris", "lat": -78.56966964333898, "lon": 178.53251494880962, "alt_km": 735.352384055218, "timestamp": "2025-12-24T16:52:41.811257+00:00", "meta": {"OBJECT_NAME": "FENGYUN 1C DEB", "OBJECT_ID": "1999-025AWV", "EPOCH": "2025-12-24T02:24:42.747264", "MEAN_MOTION": 14.49277181, "ECCENTRICITY": 0.00306798, "INCLINATION": 98.9207, "RA_OF_ASC_NODE": 48.8687, "ARG_OF_PERICENTER": 354.988, "MEAN_ANOMALY": 5.1, "EPHEMERIS_TYPE": 0, "CLASSIFICATION_TYPE": "U", "NORAD_CAT_ID": 30859, "ELEMENT_SET_NO": 999, "REV_AT_EPOCH": 97199, "BSTAR": 0.0026278608, "MEAN_MOTION_DOT": 0.00010047, "MEAN_MOTION_DDOT": 0}, "tle": {"line1": "1 30859U 99025AWV 25358.10049476  .00010047  00000+0  26279-2 0  9993", "line2": "2 30859  98.9207  48.8687 0030679 354.9880   5.1000 14.49277181971990"}}, "geometry": {"type": "Point", "coordinates": [178.53251494880962, -78.56966964333898]}}]}